start=new Date('2022-05-22T00:00:00.000Z').valueOf();
sats=[{"ELEMENT_SET_NO":"999","SITE":"AFETR","MEAN_ANOMALY":"310.1015","MEAN_MOTION_DOT":"0.00010352","CENTER_NAME":"EARTH","MEAN_ELEMENT_THEORY":"SGP4","OBJECT_TYPE":"PAYLOAD","EPOCH":"2022-05-21T21:33:17.853120","RA_OF_ASC_NODE":"206.6686","TLE_LINE2":"2 46073  53.0535 206.6686 0001862  50.0137 310.1015 15.06402307100134","REV_AT_EPOCH":"10013","DECAY_DATE":null,"COUNTRY_CODE":"US","INCLINATION":"53.0535","PERIAPSIS":"545.917","MEAN_MOTION_DDOT":"0.0000000000000","APOAPSIS":"548.496","MEAN_MOTION":"15.06402307","FILE":"3457577","LAUNCH_DATE":"2020-08-07","RCS_SIZE":"LARGE","OBJECT_NAME":"STARLINK-1542","TLE_LINE1":"1 46073U 20055AY  22141.89812330  .00010352  00000-0  71281-3 0  9999","ARG_OF_PERICENTER":"50.0137","BSTAR":"0.00071281000000","EPHEMERIS_TYPE":"0","PERIOD":"95.592","CLASSIFICATION_TYPE":"U","NORAD_CAT_ID":"46073","TIME_SYSTEM":"UTC","OBJECT_ID":"2020-055AY","ECCENTRICITY":"0.00018620","REF_FRAME":"TEME","SEMIMAJOR_AXIS":"6925.341","GP_ID":"204191420"},{"NORAD_CAT_ID":"46074","TIME_SYSTEM":"UTC","OBJECT_ID":"2020-055AZ","PERIOD":"95.592","CLASSIFICATION_TYPE":"U","GP_ID":"204189682","REF_FRAME":"TEME","SEMIMAJOR_AXIS":"6925.360","ECCENTRICITY":"0.00017910","TLE_LINE1":"1 46074U 20055AZ  22141.88338028  .00000093  00000-0  25134-4 0  9994","RCS_SIZE":"LARGE","OBJECT_NAME":"STARLINK-1549","LAUNCH_DATE":"2020-08-07","APOAPSIS":"548.465","FILE":"3457577","MEAN_MOTION":"15.06396347","BSTAR":"0.00002513400000","EPHEMERIS_TYPE":"0","ARG_OF_PERICENTER":"49.8901","TLE_LINE2":"2 46074  53.0544 206.7164 0001791  49.8901 310.2244 15.06396347100123","EPOCH":"2022-05-21T21:12:04.056192","RA_OF_ASC_NODE":"206.7164","OBJECT_TYPE":"PAYLOAD","PERIAPSIS":"545.984","MEAN_MOTION_DDOT":"0.0000000000000","COUNTRY_CODE":"US","INCLINATION":"53.0544","REV_AT_EPOCH":"10012","DECAY_DATE":null,"MEAN_ANOMALY":"310.2244","SITE":"AFETR","ELEMENT_SET_NO":"999","MEAN_ELEMENT_THEORY":"SGP4","CENTER_NAME":"EARTH","MEAN_MOTION_DOT":"0.00000093"},{"MEAN_MOTION_DOT":"0.00025372","CENTER_NAME":"EARTH","MEAN_ELEMENT_THEORY":"SGP4","ELEMENT_SET_NO":"999","SITE":"AFETR","MEAN_ANOMALY":"305.0805","REV_AT_EPOCH":"10013","DECAY_DATE":null,"COUNTRY_CODE":"US","INCLINATION":"53.0518","PERIAPSIS":"545.809","MEAN_MOTION_DDOT":"0.0000000000000","OBJECT_TYPE":"PAYLOAD","EPOCH":"2022-05-21T21:49:13.393056","RA_OF_ASC_NODE":"206.5991","TLE_LINE2":"2 46075  53.0518 206.5991 0002013  55.0373 305.0805 15.06403261100131","ARG_OF_PERICENTER":"55.0373","BSTAR":"0.00171590000000","EPHEMERIS_TYPE":"0","APOAPSIS":"548.598","FILE":"3457577","MEAN_MOTION":"15.06403261","LAUNCH_DATE":"2020-08-07","OBJECT_NAME":"STARLINK-1551","RCS_SIZE":"LARGE","TLE_LINE1":"1 46075U 20055BA  22141.90918279  .00025372  00000-0  17159-2 0  9993","ECCENTRICITY":"0.00020130","REF_FRAME":"TEME","SEMIMAJOR_AXIS":"6925.339","GP_ID":"204189932","PERIOD":"95.592","CLASSIFICATION_TYPE":"U","TIME_SYSTEM":"UTC","NORAD_CAT_ID":"46075","OBJECT_ID":"2020-055BA"},{"PERIOD":"95.592","CLASSIFICATION_TYPE":"U","NORAD_CAT_ID":"46076","TIME_SYSTEM":"UTC","OBJECT_ID":"2020-055BB","ECCENTRICITY":"0.00019750","REF_FRAME":"TEME","SEMIMAJOR_AXIS":"6925.361","GP_ID":"204191170","APOAPSIS":"548.593","FILE":"3457577","MEAN_MOTION":"15.06396088","LAUNCH_DATE":"2020-08-07","RCS_SIZE":"LARGE","OBJECT_NAME":"STARLINK-1552","TLE_LINE1":"1 46076U 20055BB  22141.86863222  .00001521  00000-0  12100-3 0  9998","ARG_OF_PERICENTER":"34.3671","BSTAR":"0.00012100000000","EPHEMERIS_TYPE":"0","OBJECT_TYPE":"PAYLOAD","EPOCH":"2022-05-21T20:50:49.823808","RA_OF_ASC_NODE":"206.7990","TLE_LINE2":"2 46076  53.0532 206.7990 0001975  34.3671 325.7445 15.06396088100111","REV_AT_EPOCH":"10011","DECAY_DATE":null,"COUNTRY_CODE":"US","INCLINATION":"53.0532","PERIAPSIS":"545.858","MEAN_MOTION_DDOT":"0.0000000000000","ELEMENT_SET_NO":"999","SITE":"AFETR","MEAN_ANOMALY":"325.7445","MEAN_MOTION_DOT":"0.00001521","CENTER_NAME":"EARTH","MEAN_ELEMENT_THEORY":"SGP4"},{"SITE":"AFETR","MEAN_ANOMALY":"309.1389","ELEMENT_SET_NO":"999","MEAN_ELEMENT_THEORY":"SGP4","MEAN_MOTION_DOT":"0.00002550","CENTER_NAME":"EARTH","EPOCH":"2022-05-21T21:59:49.609824","RA_OF_ASC_NODE":"206.5758","TLE_LINE2":"2 46077  53.0556 206.5758 0001830  50.9763 309.1389 15.06398631100090","OBJECT_TYPE":"PAYLOAD","PERIAPSIS":"545.950","MEAN_MOTION_DDOT":"0.0000000000000","REV_AT_EPOCH":"10009","DECAY_DATE":null,"COUNTRY_CODE":"US","INCLINATION":"53.0556","OBJECT_NAME":"STARLINK-1559","RCS_SIZE":"LARGE","TLE_LINE1":"1 46077U 20055BC  22141.91654641  .00002550  00000-0  19004-3 0  9991","APOAPSIS":"548.485","FILE":"3457577","MEAN_MOTION":"15.06398631","LAUNCH_DATE":"2020-08-07","ARG_OF_PERICENTER":"50.9763","BSTAR":"0.00019004000000","EPHEMERIS_TYPE":"0","CLASSIFICATION_TYPE":"U","PERIOD":"95.592","NORAD_CAT_ID":"46077","TIME_SYSTEM":"UTC","OBJECT_ID":"2020-055BC","GP_ID":"204190934","ECCENTRICITY":"0.00018300","REF_FRAME":"TEME","SEMIMAJOR_AXIS":"6925.353"},{"SITE":"AFETR","MEAN_ANOMALY":"310.0874","ELEMENT_SET_NO":"999","MEAN_ELEMENT_THEORY":"SGP4","MEAN_MOTION_DOT":"0.00001151","CENTER_NAME":"EARTH","RA_OF_ASC_NODE":"206.6824","EPOCH":"2022-05-21T21:27:59.806944","TLE_LINE2":"2 46078  53.0539 206.6824 0001970  50.0287 310.0874 15.06391073100109","OBJECT_TYPE":"PAYLOAD","MEAN_MOTION_DDOT":"0.0000000000000","PERIAPSIS":"545.877","DECAY_DATE":null,"REV_AT_EPOCH":"10010","INCLINATION":"53.0539","COUNTRY_CODE":"US","RCS_SIZE":"LARGE","OBJECT_NAME":"STARLINK-1563","TLE_LINE1":"1 46078U 20055BD  22141.89444221  .00001151  00000-0  96176-4 0  9992","MEAN_MOTION":"15.06391073","FILE":"3457577","APOAPSIS":"548.605","LAUNCH_DATE":"2020-08-07","ARG_OF_PERICENTER":"50.0287","EPHEMERIS_TYPE":"0","BSTAR":"0.00009617600000","CLASSIFICATION_TYPE":"U","PERIOD":"95.593","NORAD_CAT_ID":"46078","OBJECT_ID":"2020-055BD","TIME_SYSTEM":"UTC","GP_ID":"204190169","ECCENTRICITY":"0.00019700","SEMIMAJOR_AXIS":"6925.376","REF_FRAME":"TEME"},{"INCLINATION":"53.0544","COUNTRY_CODE":"US","DECAY_DATE":null,"REV_AT_EPOCH":"10013","MEAN_MOTION_DDOT":"0.0000000000000","PERIAPSIS":"546.178","OBJECT_TYPE":"PAYLOAD","TLE_LINE2":"2 46079  53.0544 206.7045 0001520  66.3537 293.7611 15.06394429100138","RA_OF_ASC_NODE":"206.7045","EPOCH":"2022-05-21T21:17:22.402176","CENTER_NAME":"EARTH","MEAN_MOTION_DOT":"0.00001009","MEAN_ELEMENT_THEORY":"SGP4","ELEMENT_SET_NO":"999","MEAN_ANOMALY":"293.7611","SITE":"AFETR","SEMIMAJOR_AXIS":"6925.366","REF_FRAME":"TEME","ECCENTRICITY":"0.00015200","GP_ID":"204190419","NORAD_CAT_ID":"46079","TIME_SYSTEM":"UTC","OBJECT_ID":"2020-055BE","PERIOD":"95.592","CLASSIFICATION_TYPE":"U","EPHEMERIS_TYPE":"0","BSTAR":"0.00008663100000","ARG_OF_PERICENTER":"66.3537","LAUNCH_DATE":"2020-08-07","MEAN_MOTION":"15.06394429","FILE":"3457577","APOAPSIS":"548.283","TLE_LINE1":"1 46079U 20055BE  22141.88706484  .00001009  00000-0  86631-4 0  9991","OBJECT_NAME":"STARLINK-1566","RCS_SIZE":"LARGE"},{"REV_AT_EPOCH":"10011","DECAY_DATE":null,"COUNTRY_CODE":"US","INCLINATION":"53.0551","PERIAPSIS":"545.846","MEAN_MOTION_DDOT":"0.0000000000000","OBJECT_TYPE":"PAYLOAD","EPOCH":"2022-05-21T21:54:32.348160","RA_OF_ASC_NODE":"206.5773","TLE_LINE2":"2 46080  53.0551 206.5773 0002020  46.5072 313.6084 15.06389868100119","MEAN_MOTION_DOT":"0.00001856","CENTER_NAME":"EARTH","MEAN_ELEMENT_THEORY":"SGP4","ELEMENT_SET_NO":"999","SITE":"AFETR","MEAN_ANOMALY":"313.6084","ECCENTRICITY":"0.00020200","REF_FRAME":"TEME","SEMIMAJOR_AXIS":"6925.380","GP_ID":"204190684","CLASSIFICATION_TYPE":"U","PERIOD":"95.593","TIME_SYSTEM":"UTC","NORAD_CAT_ID":"46080","OBJECT_ID":"2020-055BF","ARG_OF_PERICENTER":"46.5072","BSTAR":"0.00014349000000","EPHEMERIS_TYPE":"0","APOAPSIS":"548.644","FILE":"3457577","MEAN_MOTION":"15.06389868","LAUNCH_DATE":"2020-08-07","OBJECT_NAME":"STARLINK-1568","RCS_SIZE":"LARGE","TLE_LINE1":"1 46080U 20055BF  22141.91287440  .00001856  00000-0  14349-3 0  9999"},{"CLASSIFICATION_TYPE":"U","PERIOD":"95.593","NORAD_CAT_ID":"46081","OBJECT_ID":"2020-055BG","TIME_SYSTEM":"UTC","ECCENTRICITY":"0.00017290","REF_FRAME":"TEME","SEMIMAJOR_AXIS":"6925.377","GP_ID":"204191421","APOAPSIS":"548.439","MEAN_MOTION":"15.06390808","FILE":"3457577","LAUNCH_DATE":"2020-08-07","RCS_SIZE":"LARGE","OBJECT_NAME":"STARLINK-1571","TLE_LINE1":"1 46081U 20055BG  22141.87969415  .00002440  00000-0  18268-3 0  9998","ARG_OF_PERICENTER":"56.1247","BSTAR":"0.00018268000000","EPHEMERIS_TYPE":"0","OBJECT_TYPE":"PAYLOAD","EPOCH":"2022-05-21T21:06:45.574560","RA_OF_ASC_NODE":"206.7322","TLE_LINE2":"2 46081  53.0537 206.7322 0001729  56.1247 303.9906 15.06390808100124","REV_AT_EPOCH":"10012","DECAY_DATE":null,"COUNTRY_CODE":"US","INCLINATION":"53.0537","PERIAPSIS":"546.044","MEAN_MOTION_DDOT":"0.0000000000000","ELEMENT_SET_NO":"999","SITE":"AFETR","MEAN_ANOMALY":"303.9906","MEAN_MOTION_DOT":"0.00002440","CENTER_NAME":"EARTH","MEAN_ELEMENT_THEORY":"SGP4"},{"PERIOD":"95.591","CLASSIFICATION_TYPE":"U","OBJECT_ID":"2020-055BH","NORAD_CAT_ID":"46082","TIME_SYSTEM":"UTC","ECCENTRICITY":"0.00016000","SEMIMAJOR_AXIS":"6925.304","REF_FRAME":"TEME","GP_ID":"204189683","FILE":"3457577","MEAN_MOTION":"15.06414424","APOAPSIS":"548.277","LAUNCH_DATE":"2020-08-07","OBJECT_NAME":"STARLINK-1578","RCS_SIZE":"LARGE","TLE_LINE1":"1 46082U 20055BH  22141.90180761  .00007879  00000-0  54704-3 0  9998","ARG_OF_PERICENTER":"57.8787","EPHEMERIS_TYPE":"0","BSTAR":"0.00054704000000","OBJECT_TYPE":"PAYLOAD","RA_OF_ASC_NODE":"206.6421","EPOCH":"2022-05-21T21:38:36.177504","TLE_LINE2":"2 46082  53.0537 206.6421 0001600  57.8787 302.2357 15.06414424100133","DECAY_DATE":null,"REV_AT_EPOCH":"10013","INCLINATION":"53.0537","COUNTRY_CODE":"US","MEAN_MOTION_DDOT":"0.0000000000000","PERIAPSIS":"546.061","ELEMENT_SET_NO":"999","SITE":"AFETR","MEAN_ANOMALY":"302.2357","MEAN_MOTION_DOT":"0.00007879","CENTER_NAME":"EARTH","MEAN_ELEMENT_THEORY":"SGP4"}];
